FLOCK 4X-13             
1 51028U 22002AW  22251.12907335  .00011692  00000+0  60620-3 0  9999
2 51028  97.4786 317.1191 0013798 132.1069 228.1339 15.16238114 35954
FLOCK 4X-39             
1 51029U 22002AX  22251.12280717  .00005188  00000+0  27107-3 0  9994
2 51029  97.4788 317.1297 0013736 130.4262 229.8172 15.16248099 35958
FLOCK 4X-17             
1 51035U 22002BD  22251.45589256  .00012464  00000+0  64614-3 0  9996
2 51035  97.4822 317.4153 0009765 137.9936 222.2047 15.16269198 35990
FLOCK 4X-10             
1 51037U 22002BF  22251.43052498  .00004039  00000+0  21241-3 0  9997
2 51037  97.4835 317.4940 0012618 137.6120 222.6090 15.16163976 35992
FLOCK 4X-36             
1 51039U 22002BH  22251.43407779  .00009807  00000+0  50907-3 0  9994
2 51039  97.4834 317.4854 0011097 139.2372 220.9693 15.16273969 35998
FLOCK 4X-21             
1 51040U 22002BJ  22251.44472422  .00010872  00000+0  56469-3 0  9997
2 51040  97.4810 317.3937 0010056 135.5197 224.6845 15.16232241 35991
FLOCK 4X-31             
1 51041U 22002BK  22251.44761437  .00007895  00000+0  41094-3 0  9994
2 51041  97.4781 317.2855 0010163 130.7593 229.4524 15.16250278 35990
FLOCK 4X-34             
1 51042U 22002BL  22250.72059098  .00012576  00000+0  65275-3 0  9997
2 51042  97.4837 316.7463 0010315 141.6828 218.5139 15.16219023 35885
FLOCK 4X-6              
1 51043U 22002BM  22251.44950938  .00006659  00000+0  34750-3 0  9990
2 51043  97.4821 317.4053 0010171 136.8160 223.3872 15.16222830 35997
FLOCK 4X-28             
1 51045U 22002BP  22251.44305335  .00010751  00000+0  55771-3 0  9991
2 51045  97.4789 317.3197 0010675 128.8396 231.3792 15.16275405 35997
FLOCK 4X-19             
1 51046U 22002BQ  22251.17782605  .00011241  00000+0  58315-3 0  9993
2 51046  97.4825 317.1793 0010339 138.5369 221.6650 15.16265387 35953
FLOCK 4X-9              
1 51047U 22002BR  22251.17481259  .00010630  00000+0  55176-3 0  9998
2 51047  97.4834 317.2048 0010902 140.5352 219.6677 15.16254862 35951
FLOCK 4X-35             
1 51048U 22002BS  22251.43656804  .00010127  00000+0  52609-3 0  9997
2 51048  97.4767 317.2624 0010442 132.7310 227.4804 15.16242412 35994
FLOCK 4X-11             
1 51049U 22002BT  22251.45063081  .00011339  00000+0  58914-3 0  9990
2 51049  97.4778 317.2764 0010046 136.3805 223.8224 15.16209512 35991
FLOCK 4X-40             
1 51052U 22002BW  22251.45368671  .00012985  00000+0  67397-3 0  9990
2 51052  97.4776 317.2684 0009756 135.9419 224.2593 15.16215330 35995
FLOCK 4X-24             
1 51056U 22002CA  22250.13710091  .00008710  00000+0  45358-3 0  9999
2 51056  97.4767 315.9898 0009759 138.1401 222.0580 15.16206799 35799
FLOCK 4X-4              
1 51064U 22002CJ  22251.43208941  .00006751  00000+0  35158-3 0  9998
2 51064  97.4786 317.3231 0010926 129.5383 230.6817 15.16280266 35998
FLOCK 4X-7              
1 51065U 22002CK  22251.44019265  .00010396  00000+0  53917-3 0  9992
2 51065  97.4816 317.4181 0010546 136.4315 223.7753 15.16293262 35990
FLOCK 4X-14             
1 51066U 22002CL  22251.17184693  .00010497  00000+0  54495-3 0  9995
2 51066  97.4849 317.2576 0011162 140.8837 219.3205 15.16250360 35957
